[{"OBJECT_NAME":"STARLINK-34480","OBJECT_ID":"2025-129R","EPOCH":"2026-03-09T23:34:57.825408","MEAN_MOTION":14.98332626,"ECCENTRICITY":0.00034043,"INCLINATION":70.001,"RA_OF_ASC_NODE":73.6158,"ARG_OF_PERICENTER":268.4976,"MEAN_ANOMALY":91.5793,"EPHEMERIS_TYPE":0,"CLASSIFICATION_TYPE":"U","NORAD_CAT_ID":64427,"ELEMENT_SET_NO":999,"REV_AT_EPOCH":4133,"BSTAR":0.00032514467,"MEAN_MOTION_DOT":3.789e-5,"MEAN_MOTION_DDOT":0},{"OBJECT_NAME":"PEGASUS DEB","OBJECT_ID":"1994-029ADZ","EPOCH":"2026-03-09T09:44:41.678880","MEAN_MOTION":14.71787317,"ECCENTRICITY":0.01294019,"INCLINATION":81.9867,"RA_OF_ASC_NODE":205.808,"ARG_OF_PERICENTER":256.1704,"MEAN_ANOMALY":159.4284,"EPHEMERIS_TYPE":0,"CLASSIFICATION_TYPE":"U","NORAD_CAT_ID":25445,"ELEMENT_SET_NO":999,"REV_AT_EPOCH":52180,"BSTAR":0.00051371535,"MEAN_MOTION_DOT":3.68e-5,"MEAN_MOTION_DDOT":0}]
